GOES 1 (SMS-C) [-]      
1 08366U 75100A   22251.39692521 -.00000250  00000+0  00000+0 0  9991
2 08366   8.0810 294.6831 0002870 250.0232 224.9702  1.00268173171256
GOES 2 [-]              
1 10061U 77048A   22251.58857976 -.00000266  00000+0  00000+0 0  9994
2 10061   9.6663 306.2065 0010203  25.1677  29.6972  0.99402435 32585
GOES 3 [-]              
1 10953U 78062A   22250.87608948 -.00000083  00000+0  00000+0 0  9992
2 10953  10.0015 310.7567 0003245 170.9526 194.1745  0.99363171114848
GOES 4 [-]              
1 11964U 80074A   22250.81016598  .00000054  00000+0  00000+0 0  9996
2 11964  10.9651 314.5822 0031703  77.9594 289.1106  0.99228945113768
GOES 5 [-]              
1 12472U 81049A   22251.21654003 -.00000288  00000+0  00000+0 0  9998
2 12472  11.8178 325.9829 0002412 185.8616 201.9553  1.00303667109142
GOES 6 [-]              
1 14050U 83041A   22251.21478418 -.00000275  00000+0  00000+0 0  9996
2 14050  12.3840 331.2992 0005002 157.9853 219.7067  1.00284623202208
GOES 7 [-]              
1 17561U 87022A   22251.55188323 -.00000363  00000+0  00000+0 0  9997
2 17561  14.1722 347.8606 0004956  81.0825 253.4849  0.99906312113190
GOES 8 [-]              
1 23051U 94022A   22251.22757610 -.00000238  00000+0  00000+0 0  9992
2 23051  13.2464  23.5977 0005584  58.2640 302.1970  0.98906349110498
GOES 9 [-]              
1 23581U 95025A   22251.57593932 -.00000170  00000+0  00000+0 0  9992
2 23581  12.7404  23.9457 0008567 112.1949 246.0143  0.98802005 99147
GOES 10 [-]             
1 24786U 97019A   22249.21663503 -.00000270  00000+0  00000+0 0  9996
2 24786  11.5097  30.1535 0026606 198.3435 161.4619  0.99125580 92381
GOES 11 [-]             
1 26352U 00022A   22251.58363007 -.00000286  00000+0  00000+0 0  9991
2 26352   8.8562  58.6456 0002373 118.0067 179.8338  0.99046040 38823
GOES 12 [-]             
1 26871U 01031A   22251.57860148 -.00000121  00000+0  00000+0 0  9993
2 26871   9.6638  47.6226 0003806 335.5611 273.0654  0.99135312 77101
EWS-G1 (GOES 13) [+]    
1 29155U 06018A   22251.53591125  .00000014  00000+0  00000+0 0  9993
2 29155   0.7932  96.0240 0006254 106.4268  39.6270  1.00274391 29566
GOES 14 [B]             
1 35491U 09033A   22251.45183615 -.00000114  00000+0  00000+0 0  9997
2 35491   0.4186 267.7455 0017289 302.9072 194.9991  1.00273051 48293
GOES 15 [B]             
1 36411U 10008A   22251.53289760  .00000030  00000+0  00000+0 0  9997
2 36411   0.3788 276.9209 0004958 252.5922 242.1246  1.00278072 45851
GOES 16 [+]             
1 41866U 16071A   22251.43971182 -.00000269  00000+0  00000+0 0  9993
2 41866   0.0672 284.7875 0000541 259.0697 246.7221  1.00271515 21291
GOES 17 [+]             
1 43226U 18022A   22251.52121348  .00000077  00000+0  00000+0 0  9990
2 43226   0.0900 281.6045 0000501 210.2062 266.0744  1.00269573 16608
GOES 18 [+]             
1 51850U 22021A   22251.52290175  .00000075  00000+0  00000+0 0  9999
2 51850   0.0336  45.7641 0002935 162.4703 190.6111  1.00273736  1966
